LAPAN-TUBSAT            
1 29709U 07001A   26170.61118230  .00000336  00000+0  45072-4 0  9996
2 29709  98.1339 169.8901 0012107 171.5017 188.6405 14.85950903 51517
HAIYANG-1B              
1 31113U 07010A   26170.59201378  .00000065  00000+0  40663-4 0  9991
2 31113  98.3495 152.3440 0013180 188.9814 171.1136 14.31027414   984
COSMO-SKYMED 1          
1 31598U 07023A   26170.60797968  .00002247  00000+0  19994-3 0  9995
2 31598  97.8850   2.4838 0001481  98.0883 262.0506 14.97109815 30155
TERRASAR-X              
1 31698U 07026A   26170.49711592  .00000145  00000+0  10104-4 0  9995
2 31698  97.4452 178.1696 0001572  90.3933 269.7482 15.19151206 53579
WORLDVIEW-1 (WV-1)      
1 32060U 07041A   26170.58971259  .00004705  00000+0  19552-3 0  9995
2 32060  97.3882 290.2989 0002013  13.3798 346.7492 15.24288482 43248
YAOGAN-3                
1 32289U 07055A   26170.61079765  .00001045  00000+0  11196-3 0  9998
2 32289  97.8145 200.4647 0001754  80.4390 279.7027 14.90786318  6236
COSMO-SKYMED 2          
1 32376U 07059A   26170.59142433  .00000261  00000+0  39337-4 0  9996
2 32376  97.8886 354.1544 0001356  87.9939 272.1430 14.82156601  2369
RADARSAT-2              
1 32382U 07061A   26170.62673527  .00000141  00000+0  71623-4 0  9994
2 32382  98.5774 177.5247 0001303  83.8166 276.3164 14.29982697966302
CARTOSAT-2A             
1 32783U 08021A   26170.61698067  .00000525  00000+0  77280-4 0  9992
2 32783  97.7625 219.2431 0013235 101.7798 258.4900 14.79241495979166
HUANJING 1A (HJ-1A)     
1 33320U 08041A   26170.59371547  .00001257  00000+0  15668-3 0  9994
2 33320  97.6684 156.3395 0020190 127.2458 233.0603 14.83991859958765
HUANJING 1B (HJ-1B)     
1 33321U 08041B   26170.63133986 -.00000053  00000+0 -13975-6 0  9990
2 33321  97.6521 159.5397 0036243 172.8930 187.2806 14.83317810958775
GEOEYE 1                
1 33331U 08042A   26170.54286049  .00000319  00000+0  68893-4 0  9991
2 33331  98.1236 244.4443 0005323  63.9665 296.2086 14.64727497950498
