
    {
        "ARG_OF_PERICENTER": 171.5017,
        "BSTAR": 4.5072218e-05,
        "CLASSIFICATION_TYPE": "U",
        "ECCENTRICITY": 0.00121075,
        "ELEMENT_SET_NO": 999,
        "EPHEMERIS_TYPE": 0,
        "EPOCH": "2026-06-19T14:40:06.150720",
        "INCLINATION": 98.1339,
        "MEAN_ANOMALY": 188.6405,
        "MEAN_MOTION": 14.85950903,
        "MEAN_MOTION_DDOT": 0,
        "MEAN_MOTION_DOT": 3.36e-06,
        "NORAD_CAT_ID": 29709,
        "OBJECT_ID": "2007-001A",
        "OBJECT_NAME": "LAPAN-TUBSAT",
        "RA_OF_ASC_NODE": 169.8901,
        "REV_AT_EPOCH": 5151
    },
    {
        "ARG_OF_PERICENTER": 188.9814,
        "BSTAR": 4.0663001e-05,
        "CLASSIFICATION_TYPE": "U",
        "ECCENTRICITY": 0.00131805,
        "ELEMENT_SET_NO": 999,
        "EPHEMERIS_TYPE": 0,
        "EPOCH": "2026-06-19T14:12:29.990592",
        "INCLINATION": 98.3495,
        "MEAN_ANOMALY": 171.1136,
        "MEAN_MOTION": 14.31027414,
        "MEAN_MOTION_DDOT": 0,
        "MEAN_MOTION_DOT": 6.5e-07,
        "NORAD_CAT_ID": 31113,
        "OBJECT_ID": "2007-010A",
        "OBJECT_NAME": "HAIYANG-1B",
        "RA_OF_ASC_NODE": 152.344,
        "REV_AT_EPOCH": 98
    },
    {
        "ARG_OF_PERICENTER": 98.0883,
        "BSTAR": 0.00019993755,
        "CLASSIFICATION_TYPE": "U",
        "ECCENTRICITY": 0.00014814,
        "ELEMENT_SET_NO": 999,
        "EPHEMERIS_TYPE": 0,
        "EPOCH": "2026-06-19T14:35:29.444352",
        "INCLINATION": 97.885,
        "MEAN_ANOMALY": 262.0506,
        "MEAN_MOTION": 14.97109815,
        "MEAN_MOTION_DDOT": 0,
        "MEAN_MOTION_DOT": 2.247e-05,
        "NORAD_CAT_ID": 31598,
        "OBJECT_ID": "2007-023A",
        "OBJECT_NAME": "COSMO-SKYMED 1",
        "RA_OF_ASC_NODE": 2.4838,
        "REV_AT_EPOCH": 3015
    },
    {
        "ARG_OF_PERICENTER": 90.3933,
        "BSTAR": 1.0103879e-05,
        "CLASSIFICATION_TYPE": "U",
        "ECCENTRICITY": 0.00015727,
        "ELEMENT_SET_NO": 999,
        "EPHEMERIS_TYPE": 0,
        "EPOCH": "2026-06-19T11:55:50.815488",
        "INCLINATION": 97.4452,
        "MEAN_ANOMALY": 269.7482,
        "MEAN_MOTION": 15.19151206,
        "MEAN_MOTION_DDOT": 0,
        "MEAN_MOTION_DOT": 1.45e-06,
        "NORAD_CAT_ID": 31698,
        "OBJECT_ID": "2007-026A",
        "OBJECT_NAME": "TERRASAR-X",
        "RA_OF_ASC_NODE": 178.1696,
        "REV_AT_EPOCH": 5357
    },
    {
        "ARG_OF_PERICENTER": 13.3798,
        "BSTAR": 0.00019551998,
        "CLASSIFICATION_TYPE": "U",
        "ECCENTRICITY": 0.00020137,
        "ELEMENT_SET_NO": 999,
        "EPHEMERIS_TYPE": 0,
        "EPOCH": "2026-06-19T14:09:11.167776",
        "INCLINATION": 97.3882,
        "MEAN_ANOMALY": 346.7492,
        "MEAN_MOTION": 15.24288482,
        "MEAN_MOTION_DDOT": 0,
        "MEAN_MOTION_DOT": 4.705e-05,
        "NORAD_CAT_ID": 32060,
        "OBJECT_ID": "2007-041A",
        "OBJECT_NAME": "WORLDVIEW-1 (WV-1)",
        "RA_OF_ASC_NODE": 290.2989,
        "REV_AT_EPOCH": 4324
    },
    {
        "ARG_OF_PERICENTER": 80.439,
        "BSTAR": 0.00011195738,
        "CLASSIFICATION_TYPE": "U",
        "ECCENTRICITY": 0.00017543,
        "ELEMENT_SET_NO": 999,
        "EPHEMERIS_TYPE": 0,
        "EPOCH": "2026-06-19T14:39:32.916960",
        "INCLINATION": 97.8145,
        "MEAN_ANOMALY": 279.7027,
        "MEAN_MOTION": 14.90786318,
        "MEAN_MOTION_DDOT": 0,
        "MEAN_MOTION_DOT": 1.045e-05,
        "NORAD_CAT_ID": 32289,
        "OBJECT_ID": "2007-055A",
        "OBJECT_NAME": "YAOGAN-3",
        "RA_OF_ASC_NODE": 200.4647,
        "REV_AT_EPOCH": 623
    },
    {
        "ARG_OF_PERICENTER": 87.9939,
        "BSTAR": 3.9337342e-05,
        "CLASSIFICATION_TYPE": "U",
        "ECCENTRICITY": 0.00013569,
        "ELEMENT_SET_NO": 999,
        "EPHEMERIS_TYPE": 0,
        "EPOCH": "2026-06-19T14:11:39.062112",
        "INCLINATION": 97.8886,
        "MEAN_ANOMALY": 272.143,
        "MEAN_MOTION": 14.82156601,
        "MEAN_MOTION_DDOT": 0,
        "MEAN_MOTION_DOT": 2.61e-06,
        "NORAD_CAT_ID": 32376,
        "OBJECT_ID": "2007-059A",
        "OBJECT_NAME": "COSMO-SKYMED 2",
        "RA_OF_ASC_NODE": 354.1544,
        "REV_AT_EPOCH": 236
    },
    {
        "ARG_OF_PERICENTER": 83.8166,
        "BSTAR": 7.1622723e-05,
        "CLASSIFICATION_TYPE": "U",
        "ECCENTRICITY": 0.00013036,
        "ELEMENT_SET_NO": 999,
        "EPHEMERIS_TYPE": 0,
        "EPOCH": "2026-06-19T15:02:29.927328",
        "INCLINATION": 98.5774,
        "MEAN_ANOMALY": 276.3164,
        "MEAN_MOTION": 14.29982697,
        "MEAN_MOTION_DDOT": 0,
        "MEAN_MOTION_DOT": 1.41e-06,
        "NORAD_CAT_ID": 32382,
        "OBJECT_ID": "2007-061A",
        "OBJECT_NAME": "RADARSAT-2",
        "RA_OF_ASC_NODE": 177.5247,
        "REV_AT_EPOCH": 96630
    },
    {
        "ARG_OF_PERICENTER": 101.7798,
        "BSTAR": 7.7279861e-05,
        "CLASSIFICATION_TYPE": "U",
        "ECCENTRICITY": 0.0013235,
        "ELEMENT_SET_NO": 999,
        "EPHEMERIS_TYPE": 0,
        "EPOCH": "2026-06-19T14:48:27.129888",
        "INCLINATION": 97.7625,
        "MEAN_ANOMALY": 258.49,
        "MEAN_MOTION": 14.79241495,
        "MEAN_MOTION_DDOT": 0,
        "MEAN_MOTION_DOT": 5.25e-06,
        "NORAD_CAT_ID": 32783,
        "OBJECT_ID": "2008-021A",
        "OBJECT_NAME": "CARTOSAT-2A",
        "RA_OF_ASC_NODE": 219.2431,
        "REV_AT_EPOCH": 97916
    },
    {
        "ARG_OF_PERICENTER": 127.2458,
        "BSTAR": 0.00015668308,
        "CLASSIFICATION_TYPE": "U",
        "ECCENTRICITY": 0.00201903,
        "ELEMENT_SET_NO": 999,
        "EPHEMERIS_TYPE": 0,
        "EPOCH": "2026-06-19T14:14:57.016608",
        "INCLINATION": 97.6684,
        "MEAN_ANOMALY": 233.0603,
        "MEAN_MOTION": 14.83991859,
        "MEAN_MOTION_DDOT": 0,
        "MEAN_MOTION_DOT": 1.257e-05,
        "NORAD_CAT_ID": 33320,
        "OBJECT_ID": "2008-041A",
        "OBJECT_NAME": "HUANJING 1A (HJ-1A)",
        "RA_OF_ASC_NODE": 156.3395,
        "REV_AT_EPOCH": 95876
    },
    {
        "ARG_OF_PERICENTER": 172.893,
        "BSTAR": -1.39755e-07,
        "CLASSIFICATION_TYPE": "U",
        "ECCENTRICITY": 0.00362431,
        "ELEMENT_SET_NO": 999,
        "EPHEMERIS_TYPE": 0,
        "EPOCH": "2026-06-19T15:09:07.763904",
        "INCLINATION": 97.6521,
        "MEAN_ANOMALY": 187.2806,
        "MEAN_MOTION": 14.8331781,
        "MEAN_MOTION_DDOT": 0,
        "MEAN_MOTION_DOT": -5.3e-07,
        "NORAD_CAT_ID": 33321,
        "OBJECT_ID": "2008-041B",
        "OBJECT_NAME": "HUANJING 1B (HJ-1B)",
        "RA_OF_ASC_NODE": 159.5397,
        "REV_AT_EPOCH": 95877
    },
    {
        "ARG_OF_PERICENTER": 63.9665,
        "BSTAR": 6.8893447e-05,
        "CLASSIFICATION_TYPE": "U",
        "ECCENTRICITY": 0.00053233,
        "ELEMENT_SET_NO": 999,
        "EPHEMERIS_TYPE": 0,
        "EPOCH": "2026-06-19T13:01:43.146336",
        "INCLINATION": 98.1236,
        "MEAN_ANOMALY": 296.2086,
        "MEAN_MOTION": 14.64727497,
        "MEAN_MOTION_DDOT": 0,
        "MEAN_MOTION_DOT": 3.19e-06,
        "NORAD_CAT_ID": 33331,
        "OBJECT_ID": "2008-042A",
        "OBJECT_NAME": "GEOEYE 1",
        "RA_OF_ASC_NODE": 244.4443,
        "REV_AT_EPOCH": 95049
    }